[{"OBJECT_NAME":"ONEWEB-0044","OBJECT_ID":"2020-008V","EPOCH":"2025-11-06T19:15:55.503072","MEAN_MOTION":13.10376579,"ECCENTRICITY":0.00013015,"INCLINATION":87.8789,"RA_OF_ASC_NODE":80.589,"ARG_OF_PERICENTER":102.6808,"MEAN_ANOMALY":257.4465,"EPHEMERIS_TYPE":0,"CLASSIFICATION_TYPE":"U","NORAD_CAT_ID":45150,"ELEMENT_SET_NO":999,"REV_AT_EPOCH":27935,"BSTAR":0.00080660992,"MEAN_MOTION_DOT":2.94e-6,"MEAN_MOTION_DDOT":0},{"OBJECT_NAME":"ONEWEB-0045","OBJECT_ID":"2020-008W","EPOCH":"2025-11-07T07:01:23.442816","MEAN_MOTION":13.11420114,"ECCENTRICITY":0.00016425,"INCLINATION":87.8872,"RA_OF_ASC_NODE":65.227,"ARG_OF_PERICENTER":105.9883,"MEAN_ANOMALY":254.1426,"EPHEMERIS_TYPE":0,"CLASSIFICATION_TYPE":"U","NORAD_CAT_ID":45151,"ELEMENT_SET_NO":999,"REV_AT_EPOCH":28132,"BSTAR":0.0002808602,"MEAN_MOTION_DOT":1.12e-6,"MEAN_MOTION_DDOT":0},{"OBJECT_NAME":"ONEWEB-0047","OBJECT_ID":"2020-008X","EPOCH":"2025-11-06T15:26:25.668960","MEAN_MOTION":13.10378013,"ECCENTRICITY":0.00014676,"INCLINATION":87.879,"RA_OF_ASC_NODE":80.6311,"ARG_OF_PERICENTER":100.9476,"MEAN_ANOMALY":259.1817,"EPHEMERIS_TYPE":0,"CLASSIFICATION_TYPE":"U","NORAD_CAT_ID":45152,"ELEMENT_SET_NO":999,"REV_AT_EPOCH":27905,"BSTAR":1.3097566e-5,"MEAN_MOTION_DOT":1.7e-7,"MEAN_MOTION_DDOT":0},{"OBJECT_NAME":"ONEWEB-0048","OBJECT_ID":"2020-008Y","EPOCH":"2025-11-06T18:59:10.579488","MEAN_MOTION":13.10376318,"ECCENTRICITY":0.00015902,"INCLINATION":87.8792,"RA_OF_ASC_NODE":80.6279,"ARG_OF_PERICENTER":97.4521,"MEAN_ANOMALY":262.6787,"EPHEMERIS_TYPE":0,"CLASSIFICATION_TYPE":"U","NORAD_CAT_ID":45153,"ELEMENT_SET_NO":999,"REV_AT_EPOCH":27868,"BSTAR":-0.00086385213,"MEAN_MOTION_DOT":-2.89e-6,"MEAN_MOTION_DDOT":0},{"OBJECT_NAME":"ONEWEB-0049","OBJECT_ID":"2020-008Z","EPOCH":"2025-11-06T09:52:59.717856","MEAN_MOTION":13.10376111,"ECCENTRICITY":0.00011347,"INCLINATION":87.8787,"RA_OF_ASC_NODE":80.6942,"ARG_OF_PERICENTER":86.3116,"MEAN_ANOMALY":273.8141,"EPHEMERIS_TYPE":0,"CLASSIFICATION_TYPE":"U","NORAD_CAT_ID":45154,"ELEMENT_SET_NO":999,"REV_AT_EPOCH":27885,"BSTAR":-0.00036968101,"MEAN_MOTION_DOT":-1.16e-6,"MEAN_MOTION_DDOT":0},{"OBJECT_NAME":"ONEWEB-0051","OBJECT_ID":"2020-008AA","EPOCH":"2025-11-07T06:58:56.558496","MEAN_MOTION":13.11418379,"ECCENTRICITY":0.00017096,"INCLINATION":87.8851,"RA_OF_ASC_NODE":65.2558,"ARG_OF_PERICENTER":100.9527,"MEAN_ANOMALY":259.1793,"EPHEMERIS_TYPE":0,"CLASSIFICATION_TYPE":"U","NORAD_CAT_ID":45155,"ELEMENT_SET_NO":999,"REV_AT_EPOCH":28200,"BSTAR":-0.00083895254,"MEAN_MOTION_DOT":-2.85e-6,"MEAN_MOTION_DDOT":0},{"OBJECT_NAME":"ONEWEB-0052","OBJECT_ID":"2020-008AB","EPOCH":"2025-11-06T18:55:34.017888","MEAN_MOTION":13.10374093,"ECCENTRICITY":0.00011063,"INCLINATION":87.8799,"RA_OF_ASC_NODE":80.5761,"ARG_OF_PERICENTER":88.0864,"MEAN_ANOMALY":272.039,"EPHEMERIS_TYPE":0,"CLASSIFICATION_TYPE":"U","NORAD_CAT_ID":45156,"ELEMENT_SET_NO":999,"REV_AT_EPOCH":27881,"BSTAR":-0.0012390685,"MEAN_MOTION_DOT":-4.2e-6,"MEAN_MOTION_DDOT":0},{"OBJECT_NAME":"ONEWEB-0053","OBJECT_ID":"2020-008AC","EPOCH":"2025-11-06T14:50:34.436832","MEAN_MOTION":13.10372449,"ECCENTRICITY":0.00015199,"INCLINATION":87.8783,"RA_OF_ASC_NODE":80.6582,"ARG_OF_PERICENTER":111.7414,"MEAN_ANOMALY":248.3875,"EPHEMERIS_TYPE":0,"CLASSIFICATION_TYPE":"U","NORAD_CAT_ID":45157,"ELEMENT_SET_NO":999,"REV_AT_EPOCH":27876,"BSTAR":-0.0015869869,"MEAN_MOTION_DOT":-5.41e-6,"MEAN_MOTION_DDOT":0},{"OBJECT_NAME":"ONEWEB-0054","OBJECT_ID":"2020-008AD","EPOCH":"2025-11-07T06:20:26.316672","MEAN_MOTION":13.10376222,"ECCENTRICITY":0.00014986,"INCLINATION":87.8788,"RA_OF_ASC_NODE":80.5015,"ARG_OF_PERICENTER":95.5832,"MEAN_ANOMALY":264.5466,"EPHEMERIS_TYPE":0,"CLASSIFICATION_TYPE":"U","NORAD_CAT_ID":45158,"ELEMENT_SET_NO":999,"REV_AT_EPOCH":27896,"BSTAR":0.0012244762,"MEAN_MOTION_DOT":4.4e-6,"MEAN_MOTION_DDOT":0},{"OBJECT_NAME":"ONEWEB-0056","OBJECT_ID":"2020-008AE","EPOCH":"2025-11-06T18:53:10.152384","MEAN_MOTION":13.10373816,"ECCENTRICITY":0.00014574,"INCLINATION":87.8788,"RA_OF_ASC_NODE":80.5956,"ARG_OF_PERICENTER":91.629,"MEAN_ANOMALY":268.5004,"EPHEMERIS_TYPE":0,"CLASSIFICATION_TYPE":"U","NORAD_CAT_ID":45159,"ELEMENT_SET_NO":999,"REV_AT_EPOCH":27905,"BSTAR":-0.0013134709,"MEAN_MOTION_DOT":-4.46e-6,"MEAN_MOTION_DDOT":0},{"OBJECT_NAME":"ONEWEB-0057","OBJECT_ID":"2020-008AF","EPOCH":"2025-11-06T19:03:57.953664","MEAN_MOTION":13.10376843,"ECCENTRICITY":0.00013543,"INCLINATION":87.8789,"RA_OF_ASC_NODE":80.6067,"ARG_OF_PERICENTER":99.5919,"MEAN_ANOMALY":260.5361,"EPHEMERIS_TYPE":0,"CLASSIFICATION_TYPE":"U","NORAD_CAT_ID":45160,"ELEMENT_SET_NO":999,"REV_AT_EPOCH":27922,"BSTAR":-0.00036320057,"MEAN_MOTION_DOT":-1.14e-6,"MEAN_MOTION_DDOT":0},{"OBJECT_NAME":"ONEWEB-0058","OBJECT_ID":"2020-008AG","EPOCH":"2025-11-06T18:45:01.060992","MEAN_MOTION":13.10373281,"ECCENTRICITY":0.00018114,"INCLINATION":87.8787,"RA_OF_ASC_NODE":80.6205,"ARG_OF_PERICENTER":101.3466,"MEAN_ANOMALY":258.7865,"EPHEMERIS_TYPE":0,"CLASSIFICATION_TYPE":"U","NORAD_CAT_ID":45161,"ELEMENT_SET_NO":999,"REV_AT_EPOCH":27929,"BSTAR":-0.0024713675,"MEAN_MOTION_DOT":-8.5e-6,"MEAN_MOTION_DDOT":0},{"OBJECT_NAME":"ONEWEB-0059","OBJECT_ID":"2020-008AH","EPOCH":"2025-11-06T09:30:17.525088","MEAN_MOTION":13.10369194,"ECCENTRICITY":0.00015649,"INCLINATION":87.8789,"RA_OF_ASC_NODE":80.698,"ARG_OF_PERICENTER":101.4848,"MEAN_ANOMALY":258.6456,"EPHEMERIS_TYPE":0,"CLASSIFICATION_TYPE":"U","NORAD_CAT_ID":45162,"ELEMENT_SET_NO":999,"REV_AT_EPOCH":27914,"BSTAR":-0.0018334702,"MEAN_MOTION_DOT":-6.27e-6,"MEAN_MOTION_DDOT":0},{"OBJECT_NAME":"ONEWEB-0062","OBJECT_ID":"2020-008AJ","EPOCH":"2025-11-06T15:37:13.084032","MEAN_MOTION":13.10374838,"ECCENTRICITY":0.00019405,"INCLINATION":87.8784,"RA_OF_ASC_NODE":80.6232,"ARG_OF_PERICENTER":96.1074,"MEAN_ANOMALY":264.0275,"EPHEMERIS_TYPE":0,"CLASSIFICATION_TYPE":"U","NORAD_CAT_ID":45163,"ELEMENT_SET_NO":999,"REV_AT_EPOCH":27904,"BSTAR":0.0011257737,"MEAN_MOTION_DOT":4.06e-6,"MEAN_MOTION_DDOT":0},{"OBJECT_NAME":"ONEWEB-0065","OBJECT_ID":"2020-008AK","EPOCH":"2025-11-06T15:08:30.226560","MEAN_MOTION":13.10373603,"ECCENTRICITY":0.00012178,"INCLINATION":87.8788,"RA_OF_ASC_NODE":80.6539,"ARG_OF_PERICENTER":89.5786,"MEAN_ANOMALY":270.5481,"EPHEMERIS_TYPE":0,"CLASSIFICATION_TYPE":"U","NORAD_CAT_ID":45164,"ELEMENT_SET_NO":999,"REV_AT_EPOCH":27873,"BSTAR":-0.0018081556,"MEAN_MOTION_DOT":-6.18e-6,"MEAN_MOTION_DDOT":0},{"OBJECT_NAME":"ONEWEB-0066","OBJECT_ID":"2020-020A","EPOCH":"2025-11-07T06:36:58.631904","MEAN_MOTION":13.11417565,"ECCENTRICITY":0.00015181,"INCLINATION":87.8862,"RA_OF_ASC_NODE":65.2521,"ARG_OF_PERICENTER":111.2587,"MEAN_ANOMALY":248.8703,"EPHEMERIS_TYPE":0,"CLASSIFICATION_TYPE":"U","NORAD_CAT_ID":45424,"ELEMENT_SET_NO":999,"REV_AT_EPOCH":27359,"BSTAR":-0.0011949767,"MEAN_MOTION_DOT":-4.11e-6,"MEAN_MOTION_DDOT":0},{"OBJECT_NAME":"ONEWEB-0067","OBJECT_ID":"2020-020B","EPOCH":"2025-11-07T05:41:02.248512","MEAN_MOTION":13.11415897,"ECCENTRICITY":0.00015013,"INCLINATION":87.886,"RA_OF_ASC_NODE":65.1627,"ARG_OF_PERICENTER":104.4074,"MEAN_ANOMALY":255.7221,"EPHEMERIS_TYPE":0,"CLASSIFICATION_TYPE":"U","NORAD_CAT_ID":45425,"ELEMENT_SET_NO":999,"REV_AT_EPOCH":27364,"BSTAR":0.0017928261,"MEAN_MOTION_DOT":6.48e-6,"MEAN_MOTION_DDOT":0},{"OBJECT_NAME":"ONEWEB-0080","OBJECT_ID":"2020-020C","EPOCH":"2025-11-07T05:54:16.369920","MEAN_MOTION":13.11416085,"ECCENTRICITY":0.00019296,"INCLINATION":87.8857,"RA_OF_ASC_NODE":65.2592,"ARG_OF_PERICENTER":107.0478,"MEAN_ANOMALY":253.0861,"EPHEMERIS_TYPE":0,"CLASSIFICATION_TYPE":"U","NORAD_CAT_ID":45426,"ELEMENT_SET_NO":999,"REV_AT_EPOCH":27361,"BSTAR":0.00085738443,"MEAN_MOTION_DOT":3.17e-6,"MEAN_MOTION_DDOT":0},{"OBJECT_NAME":"ONEWEB-0090","OBJECT_ID":"2020-020D","EPOCH":"2025-11-07T06:22:19.219008","MEAN_MOTION":13.11414215,"ECCENTRICITY":0.00016601,"INCLINATION":87.8856,"RA_OF_ASC_NODE":65.2557,"ARG_OF_PERICENTER":100.6338,"MEAN_ANOMALY":259.4977,"EPHEMERIS_TYPE":0,"CLASSIFICATION_TYPE":"U","NORAD_CAT_ID":45427,"ELEMENT_SET_NO":999,"REV_AT_EPOCH":27358,"BSTAR":-0.0013543737,"MEAN_MOTION_DOT":-4.67e-6,"MEAN_MOTION_DDOT":0},{"OBJECT_NAME":"ONEWEB-0061","OBJECT_ID":"2020-020E","EPOCH":"2025-11-07T07:08:32.020512","MEAN_MOTION":13.11419227,"ECCENTRICITY":0.00016137,"INCLINATION":87.8867,"RA_OF_ASC_NODE":65.2306,"ARG_OF_PERICENTER":103.1861,"MEAN_ANOMALY":256.9447,"EPHEMERIS_TYPE":0,"CLASSIFICATION_TYPE":"U","NORAD_CAT_ID":45428,"ELEMENT_SET_NO":999,"REV_AT_EPOCH":27354,"BSTAR":0.0010568182,"MEAN_MOTION_DOT":3.87e-6,"MEAN_MOTION_DDOT":0},{"OBJECT_NAME":"ONEWEB-0081","OBJECT_ID":"2020-020F","EPOCH":"2025-11-07T06:41:51.756864","MEAN_MOTION":13.11417713,"ECCENTRICITY":0.00015094,"INCLINATION":87.8858,"RA_OF_ASC_NODE":65.251,"ARG_OF_PERICENTER":109.5001,"MEAN_ANOMALY":250.629,"EPHEMERIS_TYPE":0,"CLASSIFICATION_TYPE":"U","NORAD_CAT_ID":45429,"ELEMENT_SET_NO":999,"REV_AT_EPOCH":27365,"BSTAR":-0.0012323342,"MEAN_MOTION_DOT":-4.24e-6,"MEAN_MOTION_DDOT":0},{"OBJECT_NAME":"ONEWEB-0069","OBJECT_ID":"2020-020G","EPOCH":"2025-11-07T06:25:59.241792","MEAN_MOTION":13.11414855,"ECCENTRICITY":0.00015539,"INCLINATION":87.8863,"RA_OF_ASC_NODE":65.2502,"ARG_OF_PERICENTER":104.014,"MEAN_ANOMALY":256.1161,"EPHEMERIS_TYPE":0,"CLASSIFICATION_TYPE":"U","NORAD_CAT_ID":45430,"ELEMENT_SET_NO":999,"REV_AT_EPOCH":27358,"BSTAR":-0.0013323591,"MEAN_MOTION_DOT":-4.59e-6,"MEAN_MOTION_DDOT":0},{"OBJECT_NAME":"ONEWEB-0031","OBJECT_ID":"2020-020H","EPOCH":"2025-11-07T05:45:43.156512","MEAN_MOTION":13.11417578,"ECCENTRICITY":0.00018078,"INCLINATION":87.8855,"RA_OF_ASC_NODE":65.281,"ARG_OF_PERICENTER":98.8001,"MEAN_ANOMALY":261.3332,"EPHEMERIS_TYPE":0,"CLASSIFICATION_TYPE":"U","NORAD_CAT_ID":45431,"ELEMENT_SET_NO":999,"REV_AT_EPOCH":27356,"BSTAR":0.001362148,"MEAN_MOTION_DOT":4.95e-6,"MEAN_MOTION_DDOT":0}]
